STARLINK-1835           
1 46782U 20074AV  25180.83984049 -.00000268  00000+0  89670-6 0  9993
2 46782  53.0558   6.7046 0001622  92.1655 267.9519 15.06397883258708
STARLINK-1882           
1 46784U 20074AX  25180.81406553 -.00000947  00000+0 -44702-4 0  9992
2 46784  53.0557   7.0503 0001429  88.2471 271.8682 15.06399258258699
STARLINK-1893           
1 46786U 20074AZ  25180.75691775  .00004165  00000+0  29837-3 0  9994
2 46786  53.0550 347.0770 0001506  94.6094 265.5067 15.06393788258975
STARLINK-1931           
1 46790U 20074BD  25180.86103362 -.00001364  00000+0 -72700-4 0  9999
2 46790  53.0563  16.6057 0001361  93.7691 266.3453 15.06397371258568
STARLINK-1934           
1 46792U 20074BF  25180.83614123  .00017165  00000+0  11667-2 0  9997
2 46792  53.0547   6.7254 0001332 111.1988 248.9143 15.06455252258704
STARLINK-1942           
1 46794U 20074BH  25180.80574618 -.00000148  00000+0  89436-5 0  9996
2 46794  53.0562  16.8579 0001599  84.4911 275.6260 15.06399170258565
STARLINK-1944           
1 46796U 20074BK  25180.84722432  .00000609  00000+0  59765-4 0  9993
2 46796  53.0561   6.6756 0001426  86.1435 273.9717 15.06392341258706
STARLINK-1777           
1 47122U 20088A   25180.83339063  .00001828  00000+0  14153-3 0  9990
2 47122  53.0548 356.7370 0001407 102.5315 257.5832 15.06410613254025
STARLINK-1812           
1 47126U 20088E   25180.92554392 -.00000216  00000+0  43648-5 0  9992
2 47126  53.0555 356.3198 0001257  87.2007 272.9126 15.06393262253746
STARLINK-1843           
1 47133U 20088M   25180.77164895 -.00003983  00000+0 -24856-3 0  9991
2 47133  53.0574 347.0100 0001494  92.6584 267.4576 15.06410579253859
STARLINK-1845           
1 47135U 20088P   25180.83062464 -.00002364  00000+0 -13988-3 0  9995
2 47135  53.0561 346.7485 0000976  93.7490 266.3611 15.06402162253869
STARLINK-1856           
1 47143U 20088X   25180.83431452  .00001851  00000+0  14310-3 0  9999
2 47143  53.0561 346.7290 0001380  95.7333 264.3814 15.06399067253862
STARLINK-1860           
1 47147U 20088AB  25180.21573105  .02339443  11790-4  13330-2 0  9993
2 47147  52.9955 273.4879 0013049 325.7141 111.7136 16.18168452255082
STARLINK-1861           
1 47148U 20088AC  25180.91668981  .00407493  72080-4  14162-2 0  9990
2 47148  53.0462 311.8996 0013592 278.9582   2.4463 15.88741317  5980
STARLINK-1863           
1 47150U 20088AE  25180.91668981  .00133686  00000+0  27112-2 0  9990
2 47150  53.0484 331.1878 0007625 232.1707 355.3140 15.45408503  5940
STARLINK-1866           
1 47152U 20088AG  25180.91668981  .00444389  87960-4  12535-2 0  9995
2 47152  53.0308 293.3213 0012972 281.4930  54.2359 15.92803400  6052
STARLINK-1871           
1 47157U 20088AM  25180.87023492 -.00008537  00000+0 -55438-3 0  9995
2 47157  53.0561 356.5702 0001231  89.7320 270.3810 15.06434766253733
STARLINK-1873           
1 47158U 20088AN  25180.76059496  .00003374  00000+0  24528-3 0  9995
2 47158  53.0557 347.0606 0001148  90.7912 269.3209 15.06402909253850
STARLINK-1876           
1 47161U 20088AR  25180.79376286  .00000476  00000+0  50826-4 0  9992
2 47161  53.0557 346.9109 0001319  88.3137 271.8003 15.06400051253869
STARLINK-1888           
1 47171U 20088BB  25180.87116795  .00001834  00000+0  14201-3 0  9994
2 47171  53.0557 346.5648 0001454  95.0983 265.0172 15.06390316253873
STARLINK-1890           
1 47173U 20088BD  25180.83773441  .07967751  12368-4  73471-3 0  9994
2 47173  53.0139 272.4562 0007521 301.9011 160.7956 16.37933636255196
STARLINK-1912           
1 47178U 20088BJ  25180.83707097 -.00004789  00000+0 -30268-3 0  9993
2 47178  53.0561 356.7173 0001081  89.0591 271.0521 15.06418137253726
STARLINK-1913           
1 47179U 20088BK  25180.82509127 -.00000484  00000+0 -13614-4 0  9992
2 47179  53.0558   6.7698 0001384  91.9328 268.1820 15.06401591253582
STARLINK-2017           
1 47351U 21005C   25180.86561992  .00001366  00000+0  11065-3 0  9991
2 47351  53.0561  76.5762 0001560  91.5757 268.5410 15.06384524245499
STARLINK-2034           
1 47352U 21005D   25180.81864727 -.00001198  00000+0 -61534-4 0  9991
2 47352  53.0546 116.8008 0001603  86.6080 273.5093 15.06397554244923
STARLINK-2045           
1 47353U 21005E   25180.90665500  .00000382  00000+0  44570-4 0  9993
2 47353  53.0554  61.4037 0001488  86.8320 273.2839 15.06387501245714
STARLINK-2046           
1 47354U 21005F   25180.90487789  .00000694  00000+0  65486-4 0  9990
2 47354  53.0558  81.9552 0001519  93.9883 266.1280 15.06389537245426
STARLINK-2047           
1 47355U 21005G   25180.87486248 -.00000035  00000+0  16565-4 0  9990
2 47355  53.0557  66.5490 0001729  91.1069 269.0118 15.06385096245636
STARLINK-2049           
1 47356U 21005H   25180.12476047 -.00002018  00000+0 -11667-3 0  9996
2 47356  53.0557  89.9148 0001464  98.6462 261.4693 15.06390954245241
STARLINK-2050           
1 47357U 21005J   25180.10730366  .00000562  00000+0  56603-4 0  9992
2 47357  53.0549 120.4166 0001509  95.7119 264.4042 15.06402306244819
STARLINK-2055           
1 47358U 21005K   25180.46661878 -.00000867  00000+0 -39295-4 0  9991
2 47358  53.0554  88.3699 0001408  87.1688 272.9462 15.06394887245290
STARLINK-2069           
1 47359U 21005L   25180.87988094  .00028571  00000+0  62170-3 0  9996
2 47359  53.0253  66.7724 0001830  71.1957 288.9246 15.44100864245634
STARLINK-2071           
1 47361U 21005N   25180.93936565  .00000023  00000+0  20431-4 0  9999
2 47361  53.0550  86.2607 0001420  86.7451 273.3700 15.06389021245365
STARLINK-2076           
1 47362U 21005P   25180.78547681 -.00000501  00000+0 -14734-4 0  9992
2 47362  53.0546 116.9475 0001498  91.8793 268.2367 15.06401800244929
STARLINK-2081           
1 47366U 21005T   25180.54957492 -.00000446  00000+0 -11030-4 0  9999
2 47366  53.0551 118.0090 0001571  85.8455 274.2714 15.06396107244886
STARLINK-2082           
1 47367U 21005U   25180.11093560  .00001275  00000+0  10444-3 0  9996
2 47367  53.0551 119.9746 0001352  71.8784 288.2352 15.06400246244829
STARLINK-2084           
1 47368U 21005V   25180.23626965  .00000185  00000+0  31315-4 0  9991
2 47368  53.0553 119.4150 0001490  90.5737 269.5423 15.06398687244843
STARLINK-2086           
1 47370U 21005X   25180.86289778  .00008060  00000+0  55996-3 0  9990
2 47370  53.0558  76.6012 0000445 107.4329 252.6708 15.06358560245505
STARLINK-2088           
1 47371U 21005Y   25180.25100909  .00000343  00000+0  41891-4 0  9998
2 47371  53.0550 119.3460 0001552  90.7070 269.4097 15.06400515244848
STARLINK-2092           
1 47373U 21005AA  25180.11462790  .00000124  00000+0  27243-4 0  9996
2 47373  53.0551 119.9604 0001503  93.0325 267.0836 15.06399694244820
STARLINK-2093           
1 47374U 21005AB  25180.53114053  .00000141  00000+0  28359-4 0  9997
2 47374  53.0548 118.0596 0001815  90.7142 269.4055 15.06391582244887
STARLINK-2094           
1 47375U 21005AC  25180.53851609 -.00000039  00000+0  16283-4 0  9993
2 47375  53.0546 118.0584 0001421  90.3082 269.8070 15.06383045244881
STARLINK-2096           
1 47376U 21005AD  25180.54220660 -.00003194  00000+0 -19562-3 0  9990
2 47376  53.0551 118.0384 0001281  85.1735 274.9401 15.06399765244888
STARLINK-2097           
1 47377U 21005AE  25180.12937163 -.00000117  00000+0  11054-4 0  9998
2 47377  53.0549 119.8967 0001553  95.8663 264.2503 15.06400731244827
STARLINK-2098           
1 47378U 21005AF  25180.85182458  .00000536  00000+0  54884-4 0  9990
2 47378  53.0555  76.6505 0001526  90.3301 269.7863 15.06388116245497
STARLINK-2099           
1 47379U 21005AG  25180.85824913  .00001290  00000+0  10552-3 0  9991
2 47379  53.0558  76.6124 0001632  88.4045 271.7131 15.06381755245492
STARLINK-2100           
1 47380U 21005AH  25180.88775701  .00001577  00000+0  12477-3 0  9992
2 47380  53.0556  86.4910 0001470  88.8145 271.3012 15.06400452245365
STARLINK-2101           
1 47381U 21005AJ  25180.90390097  .00000636  00000+0  61631-4 0  9999
2 47381  53.0554  91.5042 0001540  90.2649 269.8516 15.06389720245298
STARLINK-2102           
1 47382U 21005AK  25180.88039231  .00000703  00000+0  66103-4 0  9991
2 47382  53.0557  86.5229 0001492  90.2385 269.8775 15.06391188245351
STARLINK-2103           
1 47383U 21005AL  25180.85923475  .00001152  00000+0  96220-4 0  9993
2 47383  53.0561  76.8958 0001374  90.8260 269.2887 15.06385798245498
STARLINK-2104           
1 47384U 21005AM  25180.46759967 -.00000623  00000+0 -22937-4 0  9992
2 47384  53.0555  88.6178 0001621  89.9601 270.1574 15.06390840245296
STARLINK-2105           
1 47385U 21005AN  25180.46388683 -.00000014  00000+0  17932-4 0  9998
2 47385  53.0554  88.3932 0001457  90.2008 269.9148 15.06398964245292
STARLINK-2106           
1 47386U 21005AP  25180.89144830  .00000300  00000+0  39033-4 0  9993
2 47386  53.0554  86.4729 0001521  90.1459 269.9704 15.06390818245363
STARLINK-2109           
1 47388U 21005AR  25180.22888747  .00000175  00000+0  30654-4 0  9994
2 47388  53.0551 119.4484 0001521  94.2953 265.8209 15.06400986244835
STARLINK-2110           
1 47389U 21005AS  25180.80477690  .00004174  00000+0  29885-3 0  9996
2 47389  53.0552  96.8507 0001325  74.8209 285.2926 15.06414394245203
STARLINK-2111           
1 47390U 21005AT  25180.53482756  .00000002  00000+0  19029-4 0  9993
2 47390  53.0546 118.0755 0001567  90.8691 269.2478 15.06404652244884
STARLINK-2112           
1 47391U 21005AU  25180.94210754 -.00000325  00000+0 -29352-5 0  9997
2 47391  53.0556  86.2442 0001524  93.7463 266.3700 15.06395419245367
STARLINK-2113           
1 47392U 21005AV  25180.87670708  .00001296  00000+0  10592-3 0  9999
2 47392  53.0558  86.5379 0001515  79.2705 280.8455 15.06386777245354
STARLINK-2114           
1 47393U 21005AW  25180.90301172  .00000659  00000+0  63156-4 0  9997
2 47393  53.0557  61.7779 0001497  87.3937 272.7223 15.06391036245705
